OUFTI-1                 
1 41458U 16025C   21182.37583677  .00002119  00000-0  10492-3 0  9998
2 41458  98.1458 320.3567 0158209  13.2119 347.3177 15.08770667284572
E-ST@R-II               
1 41459U 16025D   21182.48122759  .00001401  00000-0  71644-4 0  9991
2 41459  98.1443 319.5175 0160194  15.8949 344.7203 15.08181251284539
AAUSAT 4                
1 41460U 16025E   21182.61376278  .00001827  00000-0  87985-4 0  9992
2 41460  98.1445 323.6067 0146568 359.0652   1.0267 15.11295162284851
AIST-2D (RS-48)         
1 41465U 16026B   21182.53637942  .00002130  00000-0  62212-4 0  9991
2 41465  97.1050  66.1629 0010040 333.1686 144.4979 15.36342159289599
SAMSAT-218D             
1 41466U 16026C   21182.52452471  .00017767  00000-0  25634-3 0  9991
2 41466  97.1561  90.9553 0002554 214.9055 319.7662 15.56035895291020
NUSAT-1 (FRESCO)        
1 41557U 16033B   21182.52250093  .00002198  00000-0  79298-4 0  9994
2 41557  97.3940 276.3801 0013011 177.6051 240.6510 15.29524472283682
NUSAT-2 (BATATA)        
1 41558U 16033C   21182.50466758  .00002171  00000-0  73542-4 0  9997
2 41558  97.4054 280.2478 0012229 170.5624 250.6999 15.31614978283879
CARTOSAT-2C             
1 41599U 16040A   21182.48848100  .00000745  00000-0  38470-4 0  9998
2 41599  97.3981 241.5482 0013062 334.9972 132.7247 15.19292253278644
SATHYABAMASAT           
1 41600U 16040B   21182.10883076  .00003164  00000-0  12455-3 0  9993
2 41600  97.2711 238.9333 0011128 292.1886  67.8172 15.26299182279239
LAPAN-A3                
1 41603U 16040E   21182.48457286  .00000154  00000-0  10172-4 0  9998
2 41603  97.2538 228.8830 0012258 319.7622 147.2783 15.20047200278717
BIROS                   
1 41604U 16040F   21182.39771063  .00000915  00000-0  42241-4 0  9998
2 41604  97.2615 234.3764 0010506 295.2206  64.7941 15.22620551279024
SWAYAM                  
1 41607U 16040J   21182.39955678  .00003432  00000-0  13628-3 0  9990
2 41607  97.2663 237.9926 0010783 291.5498  68.4591 15.25944877279179
BEESAT-4                
1 41619U 16040W   21182.10260245  .00002815  00000-0  11348-3 0  9992
2 41619  97.2682 237.8109 0008816 285.2487  74.7777 15.25600685267097
3CAT-2                  
1 41732U 16051B   21182.54682894  .00001871  00000-0  69040-4 0  9990
2 41732  97.3773 102.7044 0014439  95.3854  78.8536 15.28955630271650
PRATHAM                 
1 41783U 16059A   21182.41568090  .00000102  00000-0  28666-4 0  9996
2 41783  97.9630 232.0435 0033075 199.6806 160.3122 14.63147617254292
ALSAT 1N                
1 41789U 16059G   21182.51369317  .00000131  00000-0  33529-4 0  9990
2 41789  97.9672 235.8628 0028104 184.0470 176.0517 14.64431777254501
LISHUI 1-01             
1 41845U 16066E   21182.52074866  .00008359  00000-0  10575-2 0  9998
2 41845  98.7343 286.7091 0270989  77.3834 285.7536 14.59477262245451
CARTOSAT-2D             
1 41948U 17008A   21182.38411144  .00002040  00000-0  10000-3 0  9992
2 41948  97.4399 242.4924 0009069 110.9211 308.8697 15.19228699242499
NAYIF-1 (EO-88)         
1 42017U 17008BX  21182.44217922  .00003718  00000-0  13757-3 0  9990
2 42017  97.3148 249.7917 0007496  67.5335 292.6698 15.28274667243393
ZHUHAI-1 02 (CAS-4B)    
1 42759U 17034B   21182.52951060  .00000494  00000-0  42987-4 0  9995
2 42759  43.0175 103.6945 0010002 257.8085 272.4893 15.10245007223271
ZHUHAI-1 01 (CAS-4A)    
1 42761U 17034D   21182.51941863  .00000545  00000-0  45939-4 0  9994
2 42761  43.0175 102.7944 0010345 258.2541 270.6495 15.10332453223275
UCLSAT                  
1 42765U 17036A   21182.36884194  .00002909  00000-0  11939-3 0  9994
2 42765  97.2481 231.4859 0012424 123.8428 236.3995 15.24931936223704
NIUSAT                  
1 42766U 17036B   21182.37760163  .00002041  00000-0  89937-4 0  9996
2 42766  97.2489 227.8679 0016528 123.2798 237.0025 15.22791308223331
CARTOSAT-2E             
1 42767U 17036C   21182.46952204  .00000757  00000-0  39178-4 0  9990
2 42767  97.5033 241.3922 0009508 150.8916 304.7613 15.19239956223078
LITUANICASAT-2          
1 42768U 17036D   21182.37159492  .00005554  00000-0  21527-3 0  9997
2 42768  97.2556 232.3333 0015423 114.4936 245.7913 15.26429339223591
AALTO-1                 
1 42775U 17036L   21182.08805686  .00001492  00000-0  66695-4 0  9999
2 42775  97.2457 227.8317 0015007 123.0623 237.2058 15.22727504223279
URSA MAIOR              
1 42776U 17036M   21182.08814564  .00001683  00000-0  74296-4 0  9993
2 42776  97.2472 228.3055 0014808 122.4780 237.7891 15.22995310223291
COMPASS 2               
1 42777U 17036N   21182.41619374  .00004116  00000-0  16345-3 0  9997
2 42777  97.2540 232.5212 0013353 115.3785 244.8838 15.25797363223549
MAX VALIER SAT          
1 42778U 17036P   21182.09557482  .00001856  00000-0  80092-4 0  9992
2 42778  97.2538 230.2589 0013409 123.8294 236.4222 15.23664141223369
PEGASUS                 
1 42784U 17036V   21182.09011714  .00002465  00000-0  10288-3 0  9998
2 42784  97.2488 230.7330 0012930 126.6066 233.6364 15.24498618223434
NUDTSAT                 
1 42787U 17036Y   21182.60352874  .00002883  00000-0  11307-3 0  9990
2 42787  97.2533 233.6812 0012049 116.4161 243.8317 15.26468248223494
SUCHAI                  
1 42788U 17036Z   21182.41006158  .00003334  00000-0  13493-3 0  9991
2 42788  97.2499 232.0494 0012491 122.8562 237.3881 15.25305520223612
SKCUBE                  
1 42789U 17036AA  21182.37603518  .00003020  00000-0  12348-3 0  9990
2 42789  97.2492 231.7223 0012389 123.5584 236.6839 15.25035338223511
VZLUSAT-1               
1 42790U 17036AB  21182.40115168  .00004287  00000-0  16692-3 0  9997
2 42790  97.2526 233.4745 0011863 119.3177 240.9249 15.26448795223616
ROBUSTA-1B              
1 42792U 17036AD  21182.40832789  .00003241  00000-0  13139-3 0  9996
2 42792  97.2496 232.1383 0011971 123.1879 237.0509 15.25275170223553
D-SAT                   
1 42794U 17036AF  21182.51347498  .00000342  00000-0  34616-4 0  9991
2 42794  97.4603 201.6592 0125554 178.2201 181.9492 14.91589644219158
NORSAT 2                
1 42828U 17042D   21182.51958950  .00000685  00000-0  72862-4 0  9992
2 42828  97.4762  52.7580 0015866  97.0372 263.2653 14.91874617215836
TECHNOSAT               
1 42829U 17042E   21182.54480603  .00000149  00000-0  20205-4 0  9990
2 42829  97.4674  51.3329 0015763  99.0716 261.2288 14.91298387215785
2017-042F               
1 42830U 17042F   21182.41614829  .00000977  00000-0  99173-4 0  9996
2 42830  97.4797  53.8907 0015728  91.6864 268.6158 14.92914037215881
FLYING LAPTOP           
1 42831U 17042G   21182.51796598  .00000259  00000-0  31215-4 0  9998
2 42831  97.4694  51.5350 0015664  99.5099 260.7915 14.91308860215784
CORVUS BC2              
1 42846U 17042X   21182.51345897  .00000407  00000-0  44943-4 0  9993
2 42846  97.4710  53.8142 0011200  91.2501 269.0002 14.92311126215938
CORVUS BC1              
1 42847U 17042Y   21182.41622733  .00000122  00000-0  16981-4 0  9995
2 42847  97.4713  53.9628 0010863  90.6439 269.6025 14.92413004215927
SIMPL                   
1 42983U 98067NF  21182.48684421  .00010219  00000-0  98876-4 0  9992
2 42983  51.6351 188.0602 0003915  45.1884 314.9430 15.67088899209604
CZ-4C R/B               
1 43012U 17072C   21182.50757972  .00000055  00000-0  23211-4 0  9996
2 43012  98.7280 197.8296 0126591 310.3222  48.6969 14.56178209192787
RADFXSAT (FOX-1B)       
1 43017U 17073E   21182.46749846  .00000548  00000-0  48230-4 0  9993
2 43017  97.7059  85.9007 0253348 254.6088 102.7007 14.79585852195197
EAGLESAT 1              
1 43018U 17073F   21182.49176792  .00000937  00000-0  76864-4 0  9997
2 43018  97.7068  86.8359 0249858 251.1037 106.2939 14.80662941195128
ECAMSAT                 
1 43019U 98067NG  21182.34587446  .00044531  00000-0  23338-3 0  9991
2 43019  51.6363 152.6160 0003884  45.4914 314.6405 15.80316561292387
INS-1C                  
1 43116U 18004F   21182.42575967  .00002826  00000-0  11525-3 0  9992
2 43116  97.4132 256.7740 0010021 144.3968 215.7940 15.25231283192779
FLOCK 3P'-3             
1 43119U 18004J   21182.46296556  .00001704  00000-0  72536-4 0  9997
2 43119  97.4122 255.6850 0010699 152.6565 207.5238 15.24317085192714
FLOCK 3P'-2             
1 43120U 18004K   21182.50730308  .00001359  00000-0  59027-4 0  9998
2 43120  97.4131 255.5218 0010724 153.0161 207.1636 15.23981672192704
FLOCK 3P'-1             
1 43121U 18004L   21182.17868532  .00005904  00000-0  22343-3 0  9993
2 43121  97.4121 257.1346 0009973 147.5096 212.6758 15.27273528192718
FLOCK 3P'-4             
1 43122U 18004M   21182.43677289  .00001516  00000-0  65450-4 0  9992
2 43122  97.4138 255.5601 0010485 154.7948 205.3803 15.24011149192692
MICROMAS-2A             
1 43131U 18004W   21182.46862735  .00004486  00000-0  16932-3 0  9996
2 43131  97.4106 258.3033 0009453 145.0114 215.1747 15.27503303192909
PICSAT                  
1 43132U 18004X   21182.15748079  .00002774  00000-0  11084-3 0  9998
2 43132  97.4083 256.5772 0009863 151.0726 209.1061 15.25931059192773
CNUSAIL-1               
1 43133U 18004Y   21182.45674875  .00001917  00000-0  79857-4 0  9995
2 43133  97.4060 255.8603 0009954 152.5530 207.6235 15.24914584192762
2018-004Z               
1 43134U 18004Z   21182.47344228  .00002612  00000-0  10574-3 0  9997
2 43134  97.4073 256.5677 0009767 151.1866 208.9913 15.25542438192803
FOX-1D (AO-92)          
1 43137U 18004AC  21182.43755542  .00002216  00000-0  90757-4 0  9993
2 43137  97.4064 256.3263 0009511 152.5357 207.6385 15.25319464192790
STEP CUBE LAB           
1 43138U 18004AD  21182.46518515  .00003836  00000-0  14712-3 0  9999
2 43138  97.4104 258.1355 0009330 148.8555 211.3239 15.27061694192897
XIAOXIANG-2             
1 43155U 18008A   21182.48704565  .00000892  00000-0  54802-4 0  9990
2 43155  97.4012 247.0331 0015441 281.4767 174.1954 15.12482267190192
